0 SPACEWAY 1
1 28644U 05015A   13282.38178582 -.00000116  00000-0  10000-3 0  7242
2 28644 000.0074 290.9238 0000365 127.8110 353.9746 01.00271130 31055
0 SPACEWAY 1
1 28644U 05015A   13283.81003027 -.00000121  00000-0  10000-3 0  7259
2 28644 000.0039 289.5138 0000370 130.4785 148.2858 01.00270961 31064
0 SPACEWAY 1
1 28644U 05015A   13285.34613431 -.00000125  00000-0  10000-3 0  7260
2 28644 000.0008 281.6536 0000360 143.5801 337.5491 01.00270870 31085
0 SPACEWAY 1
1 28644U 05015A   13286.35597299 -.00000127  00000-0  10000-3 0  7278
2 28644 000.0013 110.9804 0000360 316.0352 340.3008 01.00270852 31098
0 SPACEWAY 1
1 28644U 05015A   13286.58185275 -.00000127  00000-0  10000-3 0  7281
2 28644 000.0017 134.5893 0000345 290.9186 063.3467 01.00270846 31094
0 SPACEWAY 1
1 28644U 05015A   13288.54496843 -.00000127  00000-0  10000-3 0  7296
2 28644 000.0045 138.8836 0000381 290.0336 048.5879 01.00270843 31119
0 SPACEWAY 1
1 28644U 05015A   13290.35094405 -.00000125  00000-0  10000-3 0  7306
2 28644 000.0066 138.8593 0000381 290.0882 340.5000 01.00272653 31132
0 SPACEWAY 1
1 28644U 05015A   13292.49374959 -.00000120  00000-0  10000-3 0  7314
2 28644 000.0085 144.1173 0000499 165.8120 153.0367 01.00272437 31156
0 SPACEWAY 1
1 28644U 05015A   13293.16042507 -.00000119  00000-0  10000-3 0  7329
2 28644 000.0095 168.9455 0000453 130.0054 044.6779 01.00272471 31154
0 SPACEWAY 1
1 28644U 05015A   13294.46645641 -.00000117  00000-0  10000-3 0  7330
2 28644 000.0076 166.2302 0000388 127.4380 161.4211 01.00272357 31178
0 SPACEWAY 1
1 28644U 05015A   13295.52062963 -.00000115  00000-0  10000-3 0  7347
2 28644 000.0064 165.5219 0000347 124.4867 185.6231 01.00272279 31180
